NORAD_CAT_ID,OBJECT_NAME,OBJECT_TYPE,EPOCH,MEAN_MOTION,ECCENTRICITY,INCLINATION,RA_OF_ASC_NODE,ARG_OF_PERICENTER,MEAN_ANOMALY,BSTAR,MEAN_MOTION_DOT,MEAN_MOTION_DDOT,TLE_LINE0,TLE_LINE1,TLE_LINE2,SEMIMAJOR_AXIS,PERIOD,APOGEE,PERIGEE,DECAYED
52496.0,STARLINK-3871,PAYLOAD,2022-11-13 15:38:13,15.0883312,0.0001827,53.2169,85.1599,49.1007,311.0144,-3.7779e-05,-8.89e-06,0.0,0 STARLINK-3871,1 52496U 22049AX  22317.65155064 -.00000889  00000-0 -37779-4 0  9994,2 52496  53.2169  85.1599 0001827  49.1007 311.0144 15.08833120 29488,6917.901,95.438,541.03,538.503,0.0
52496.0,STARLINK-3871,PAYLOAD,2022-11-14 09:07:28,15.08834451,0.000177,53.2167,81.8888,47.4494,312.6647,-3.9643e-05,-9.19e-06,0.0,0 STARLINK-3871,1 52496U 22049AX  22318.38018958 -.00000919  00000-0 -39643-4 0  9991,2 52496  53.2167  81.8888 0001770  47.4494 312.6647 15.08834451 29593,6917.897,95.438,540.987,538.538,0.0
52496.0,STARLINK-3871,PAYLOAD,2022-11-14 13:53:37,15.08834649,0.0001874,53.2166,80.9969,45.7546,314.36,-4.4997e-05,-1.004e-05,0.0,0 STARLINK-3871,1 52496U 22049AX  22318.57891035 -.00001004  00000-0 -44997-4 0  9991,2 52496  53.2166  80.9969 0001874  45.7546 314.3600 15.08834649 29627,6917.897,95.438,541.058,538.465,0.0
52496.0,STARLINK-3871,PAYLOAD,2022-11-15 01:01:19,15.08842707,0.0001845,53.2166,78.9155,42.9107,317.2029,-1.7018e-05,-5.59e-06,0.0,0 STARLINK-3871,1 52496U 22049AX  22319.04258443 -.00000559  00000-0 -17018-4 0  9992,2 52496  53.2166  78.9155 0001845  42.9107 317.2029 15.08842707 29699,6917.871999999999,95.437,541.013,538.461,0.0
52496.0,STARLINK-3871,PAYLOAD,2022-11-15 12:09:01,15.08827935,0.0001884,53.217,76.8343,43.7556,316.3585,6.6448e-05,7.69e-06,0.0,0 STARLINK-3871,1 52496U 22049AX  22319.50627284  .00000769  00000-0  66448-4 0  9998,2 52496  53.2170  76.8343 0001884  43.7556 316.3585 15.08827935 29761,6917.917,95.438,541.086,538.479,0.0
52496.0,STARLINK-3871,PAYLOAD,2022-11-15 15:19:48,15.0882686,0.0001923,53.2172,76.24,44.4765,315.6381,0.00013702,1.892e-05,0.0,0 STARLINK-3871,1 52496U 22049AX  22319.63875248  .00001892  00000-0  13702-3 0  9999,2 52496  53.2172  76.2400 0001923  44.4765 315.6381 15.08826860 29789,6917.920999999999,95.438,541.116,538.455,0.0
52496.0,STARLINK-3871,PAYLOAD,2022-11-16 15:10:35,15.08833096,0.000205,53.2173,71.7793,41.6043,318.5105,7.4957e-05,9.05e-06,0.0,0 STARLINK-3871,1 52496U 22049AX  22320.63235432  .00000905  00000-0  74957-4 0  9990,2 52496  53.2173  71.7793 0002050  41.6043 318.5105 15.08833096 29937,6917.901,95.438,541.185,538.3480000000002,0.0
52496.0,STARLINK-3871,PAYLOAD,2022-11-17 00:42:53,15.08838249,0.0001926,53.2172,69.995,43.6512,316.4632,7.6769e-05,9.34e-06,0.0,0 STARLINK-3871,1 52496U 22049AX  22321.02979127  .00000934  00000-0  76769-4 0  9995,2 52496  53.2172  69.9950 0001926  43.6512 316.4632 15.08838249 29997,6917.886,95.438,541.0830000000002,538.418,0.0
52496.0,STARLINK-3871,PAYLOAD,2022-11-17 15:01:21,15.08848707,0.000193,53.2183,67.3187,39.0464,321.0667,0.00010275,1.348e-05,0.0,0 STARLINK-3871,1 52496U 22049AX  22321.62594235  .00001348  00000-0  10275-3 0  9993,2 52496  53.2183  67.3187 0001930  39.0464 321.0667 15.08848707 30085,6917.854,95.437,541.054,538.384,0.0
52496.0,STARLINK-3871,PAYLOAD,2022-11-18 13:16:46,15.08838476,0.0002305,53.2177,63.1571,37.101,323.0141,-1.7632e-05,-5.69e-06,0.0,0 STARLINK-3871,1 52496U 22049AX  22322.55331267 -.00000569  00000-0 -17632-4 0  9991,2 52496  53.2177  63.1571 0002305  37.1010 323.0141 15.08838476 30229,6917.885,95.438,541.345,538.155,0.0
52496.0,STARLINK-3871,PAYLOAD,2022-11-18 16:27:32,15.08839625,0.0002243,53.2174,62.5615,37.5548,322.56,-5.3803e-06,-3.74e-06,0.0,0 STARLINK-3871,1 52496U 22049AX  22322.68579130 -.00000374  00000-0 -53803-5 0  9993,2 52496  53.2174  62.5615 0002243  37.5548 322.5600 15.08839625 30242,6917.882,95.438,541.298,538.195,0.0
52496.0,STARLINK-3871,PAYLOAD,2022-11-19 00:24:28,15.08835673,0.0002145,53.2174,61.0735,39.3973,320.7175,-3.003e-05,-7.66e-06,0.0,0 STARLINK-3871,1 52496U 22049AX  22323.01699416 -.00000766  00000-0 -30030-4 0  9992,2 52496  53.2174  61.0735 0002145  39.3973 320.7175 15.08835673 30293,6917.894,95.438,541.243,538.275,0.0
52496.0,STARLINK-3871,PAYLOAD,2022-11-20 05:01:23,15.08842551,0.0002141,53.217,55.72,43.5329,316.5832,9.2206e-05,1.18e-05,0.0,0 STARLINK-3871,1 52496U 22049AX  22324.20930432  .00001180  00000-0  92206-4 0  9992,2 52496  53.2170  55.7200 0002141  43.5329 316.5832 15.08842551 30470,6917.873000000001,95.437,541.219,538.256,0.0
52496.0,STARLINK-3871,PAYLOAD,2022-11-20 12:58:19,15.0884017,0.0002155,53.2177,54.2344,36.4116,323.7022,7.2678e-05,8.69e-06,0.0,0 STARLINK-3871,1 52496U 22049AX  22324.54050680  .00000869  00000-0  72678-4 0  9991,2 52496  53.2177  54.2344 0002155  36.4116 323.7022 15.08840170 30522,6917.88,95.438,541.236,538.254,0.0
52496.0,STARLINK-3871,PAYLOAD,2022-11-20 16:09:06,15.08834359,0.0002146,53.2174,53.6413,34.5939,325.5192,4.4692e-05,4.23e-06,0.0,0 STARLINK-3871,1 52496U 22049AX  22324.67299149  .00000423  00000-0  44692-4 0  9991,2 52496  53.2174  53.6413 0002146  34.5939 325.5192 15.08834359 30543,6917.898,95.438,541.247,538.278,0.0
52496.0,STARLINK-3871,PAYLOAD,2022-11-21 06:27:35,15.08832521,0.0002137,53.2177,50.964,37.7717,322.3425,3.8834e-06,-2.26e-06,0.0,0 STARLINK-3871,1 52496U 22049AX  22325.26915705 -.00000226  00000-0  38834-5 0  9994,2 52496  53.2177  50.9640 0002137  37.7717 322.3425 15.08832521 30630,6917.903,95.438,541.247,538.29,0.0
52496.0,STARLINK-3871,PAYLOAD,2022-11-21 11:13:44,15.08837153,0.0001977,53.2176,50.0711,39.7042,320.4094,4.097100000000001e-05,3.64e-06,0.0,0 STARLINK-3871,1 52496U 22049AX  22325.46787315  .00000364  00000-0  40971-4 0  9996,2 52496  53.2176  50.0711 0001977  39.7042 320.4094 15.08837153 30663,6917.889,95.438,541.122,538.386,0.0
52496.0,STARLINK-3871,PAYLOAD,2022-11-21 12:49:07,15.08841079,0.0002116,53.2178,49.7744,38.6985,321.4159,3.8687e-06,-2.27e-06,0.0,0 STARLINK-3871,1 52496U 22049AX  22325.53411264 -.00000227  00000-0  38687-5 0  9992,2 52496  53.2178  49.7744 0002116  38.6985 321.4159 15.08841079 30672,6917.877,95.437,541.206,538.278,0.0
52496.0,STARLINK-3871,PAYLOAD,2022-11-22 12:39:54,15.0884214,0.0002176,53.2175,45.3131,35.0405,325.073,3.8938e-05,3.32e-06,0.0,0 STARLINK-3871,1 52496U 22049AX  22326.52771176  .00000332  00000-0  38938-4 0  9997,2 52496  53.2175  45.3131 0002176  35.0405 325.0730 15.08842140 30827,6917.874,95.437,541.244,538.234,0.0
52496.0,STARLINK-3871,PAYLOAD,2022-11-23 06:09:09,15.08835246,0.0002125,53.218,42.0423,38.271,321.8433,-1.7768e-05,-5.71e-06,0.0,0 STARLINK-3871,1 52496U 22049AX  22327.25636040 -.00000571  00000-0 -17768-4 0  9993,2 52496  53.2180  42.0423 0002125  38.2710 321.8433 15.08835246 30934,6917.895,95.438,541.23,538.29,0.0
52496.0,STARLINK-3871,PAYLOAD,2022-11-23 10:55:19,15.0882853,0.0002264,53.2177,41.1505,36.9723,323.1424,-6.8215e-05,-1.373e-05,0.0,0 STARLINK-3871,1 52496U 22049AX  22327.45508743 -.00001373  00000-0 -68215-4 0  9997,2 52496  53.2177  41.1505 0002264  36.9723 323.1424 15.08828530 30960,6917.915,95.438,541.347,538.214,0.0
52496.0,STARLINK-3871,PAYLOAD,2022-11-23 14:06:06,15.08825462,0.0002226,53.2177,40.5558,39.5311,320.5843,-5.7317e-05,-1.2e-05,0.0,0 STARLINK-3871,1 52496U 22049AX  22327.58756991 -.00001200  00000-0 -57317-4 0  9991,2 52496  53.2177  40.5558 0002226  39.5311 320.5843 15.08825462 30980,6917.925,95.438,541.33,538.25,0.0
52496.0,STARLINK-3871,PAYLOAD,2022-11-24 05:59:56,15.08834843,0.0002276,53.2175,37.5823,31.7882,328.3247,1.9354e-05,2e-07,0.0,0 STARLINK-3871,1 52496U 22049AX  22328.24996513  .00000020  00000-0  19354-4 0  9997,2 52496  53.2175  37.5823 0002276  31.7882 328.3247 15.08834843 31080,6917.896,95.438,541.336,538.187,0.0
52496.0,STARLINK-3871,PAYLOAD,2022-11-24 10:46:06,15.08850233,0.0002274,53.2175,36.6899,30.9091,329.2034,-0.00012418,-2.265e-05,0.0,0 STARLINK-3871,1 52496U 22049AX  22328.44868082 -.00002265  00000-0 -12418-3 0  9996,2 52496  53.2175  36.6899 0002274  30.9091 329.2034 15.08850233 31113,6917.849,95.437,541.2869999999998,538.141,0.0
52496.0,STARLINK-3871,PAYLOAD,2022-11-24 12:21:29,15.08837977,0.0002318,53.2178,36.3929,32.6161,327.4974,4.557e-05,4.37e-06,0.0,0 STARLINK-3871,1 52496U 22049AX  22328.51492311  .00000437  00000-0  45570-4 0  9995,2 52496  53.2178  36.3929 0002318  32.6161 327.4974 15.08837977 31127,6917.887,95.438,541.355,538.148,0.0
52496.0,STARLINK-3871,PAYLOAD,2022-11-24 21:53:47,15.08843347,0.0002321,53.218,34.6084,32.3686,327.7449,8.513299999999999e-05,1.067e-05,0.0,0 STARLINK-3871,1 52496U 22049AX  22328.91235787  .00001067  00000-0  85133-4 0  9990,2 52496  53.2180  34.6084 0002321  32.3686 327.7449 15.08843347 31180,6917.87,95.437,541.341,538.13,0.0
52496.0,STARLINK-3871,PAYLOAD,2022-11-25 10:36:52,15.08839182,0.0002374,53.2181,32.23,33.2954,326.8187,0.00014635,2.042e-05,0.0,0 STARLINK-3871,1 52496U 22049AX  22329.44227801  .00002042  00000-0  14635-3 0  9999,2 52496  53.2181  32.2300 0002374  33.2954 326.8187 15.08839182 31262,6917.8830000000025,95.438,541.39,538.106,0.0
52496.0,STARLINK-3871,PAYLOAD,2022-11-26 10:27:39,15.08848426,0.0002504,53.2186,27.7697,35.8034,324.3125,5.190800000000001e-05,5.38e-06,0.0,0 STARLINK-3871,1 52496U 22049AX  22330.43587349  .00000538  00000-0  51908-4 0  9999,2 52496  53.2186  27.7697 0002504  35.8034 324.3125 15.08848426 31410,6917.855,95.437,541.452,537.987,0.0
52496.0,STARLINK-3871,PAYLOAD,2022-11-26 13:38:25,15.08848523,0.0002362,53.218,27.1743,32.5665,327.5472,6.0265e-05,6.71e-06,0.0,0 STARLINK-3871,1 52496U 22049AX  22330.56835225  .00000671  00000-0  60265-4 0  9996,2 52496  53.2180  27.1743 0002362  32.5665 327.5472 15.08848523 31436,6917.854,95.437,541.3530000000002,538.085,0.0
52496.0,STARLINK-3871,PAYLOAD,2022-11-27 08:43:03,15.08845198,0.000243,53.2188,23.6062,29.3073,330.8055,-2.663e-05,-7.12e-06,0.0,0 STARLINK-3871,1 52496U 22049AX  22331.36323176 -.00000712  00000-0 -26630-4 0  9998,2 52496  53.2188  23.6062 0002430  29.3073 330.8055 15.08845198 31554,6917.865,95.437,541.411,538.048,0.0
